ORBCOMM FM103           
1 40091U 14040F   25180.65665766  .00000237  00000+0  87476-4 0  9993
2 40091  47.0066 318.9153 0001908 312.9654  47.1071 14.58183851565928
ORBCOMM FM114           
1 41179U 15081A   25180.12975552  .00000151  00000+0  68864-4 0  9991
2 41179  47.0015 230.4450 0001476  13.4769 346.6156 14.58223602506215
ORBCOMM FM119           
1 41180U 15081B   25180.59795704  .00000247  00000+0  89470-4 0  9995
2 41180  46.9993 137.5466 0000203  93.7619 266.3289 14.58156519507539
ORBCOMM FM105           
1 41181U 15081C   25180.59666203  .00000044  00000+0  57060-4 0  9992
2 41181  47.0002 143.7052 0001958 347.5853  12.4979 14.45227514502543
ORBCOMM FM110           
1 41182U 15081D   25180.45845114  .00000221  00000+0  84299-4 0  9999
2 41182  47.0007 228.3687 0002357 252.6481 107.4146 14.57953088506135
ORBCOMM FM118           
1 41183U 15081E   25176.45358102  .00000366  00000+0  11462-3 0  9992
2 41183  47.0035 247.5843 0004486 202.1621 157.9071 14.58445422505657
ORBCOMM FM112           
1 41184U 15081F   25180.23094839  .00000503  00000+0  14443-3 0  9993
2 41184  46.9979 138.4216 0001152   1.5397 358.5491 14.58193550507427
ORBCOMM FM113           
1 41185U 15081G   25180.61864227  .00000503  00000+0  14434-3 0  9992
2 41185  46.9994 136.9144 0000935  11.3664 348.7242 14.58240321507460
